[{"OBJECT_NAME":"TANSTAAFL-2","OBJECT_ID":"2024-247B","EPOCH":"2026-03-08T04:58:51.015360","MEAN_MOTION":15.28016845,"ECCENTRICITY":0.00030723,"INCLINATION":44.988,"RA_OF_ASC_NODE":125.0934,"ARG_OF_PERICENTER":298.8909,"MEAN_ANOMALY":61.1666,"EPHEMERIS_TYPE":0,"CLASSIFICATION_TYPE":"U","NORAD_CAT_ID":62378,"ELEMENT_SET_NO":999,"REV_AT_EPOCH":6750,"BSTAR":0.00050871624,"MEAN_MOTION_DOT":0.00013897,"MEAN_MOTION_DDOT":0},{"OBJECT_NAME":"STARLINK-32771","OBJECT_ID":"2025-006V","EPOCH":"2026-03-09T00:33:15.346656","MEAN_MOTION":15.27570328,"ECCENTRICITY":0.00017335,"INCLINATION":43.0037,"RA_OF_ASC_NODE":296.083,"ARG_OF_PERICENTER":261.5272,"MEAN_ANOMALY":98.5383,"EPHEMERIS_TYPE":0,"CLASSIFICATION_TYPE":"U","NORAD_CAT_ID":62573,"ELEMENT_SET_NO":999,"REV_AT_EPOCH":6476,"BSTAR":0.001877295,"MEAN_MOTION_DOT":0.00051745,"MEAN_MOTION_DDOT":0}]
